# From MPEC 2022-S20
C/1995 O1 (Hale-Bopp),e,89.4642,282.3655,130.4184,176.9386,0.0004188,0.99496568,0.0000,03/29.4702/1997,2000,g -2.0,4.0
# From NK 1615
P/1996 R2 (Lagerkvist),e,2.6009,40.0092,333.4380,3.774284,0.1344164,0.31460171,216.1822,07/11.0/2023,2000,g 11.5,4.0
# From MPC 75703
P/1998 VS24 (LINEAR),e,5.0263,159.0314,244.6913,4.524068,0.1024260,0.24346998,204.4675,07/11.0/2023,2000,g 13.0,2.0
# From NK 731
P/1999 RO28 (LONEOS),e,7.5640,137.8507,231.3338,3.426286,0.1554063,0.67250916,229.1517,07/11.0/2023,2000,g 20.0,2.0
# From MPC 75704
P/1999 XN120 (Catalina),e,5.0297,285.2951,161.6522,4.179091,0.1153669,0.21060393,256.6707,07/11.0/2023,2000,g 13.5,2.0
# From NK 744
P/2000 R2 (LINEAR),e,11.6840,160.2840,176.6014,3.468069,0.1526063,0.53117244,226.4820,07/11.0/2023,2000,g 18.0,4.0
# From MPC 43019
P/2001 H5 (NEAT),e,8.3668,328.6826,224.6716,6.095583,0.0654909,0.59824578,185.3517,07/11.0/2023,2000,g 12.0,4.0
# From MPC 75704
P/2001 Q6 (NEAT),e,56.9116,22.1843,42.9361,7.965717,0.0438396,0.82354448,349.8152,07/11.0/2023,2000,g 13.5,4.0
# From MPC 47727
P/2002 EJ57 (LINEAR),e,4.9799,330.2860,167.2659,6.460456,0.0600218,0.59270316,111.0082,07/11.0/2023,2000,g 12.5,4.0
# From MPC109588
P/2002 T6 (NEAT-LINEAR),e,10.8575,206.0427,219.3568,7.768019,0.0455238,0.56418122,342.9939,07/11.0/2023,2000,g 10.5,4.0
# From MPC 75007
C/2002 VQ94 (LINEAR),e,70.7098,35.1613,99.9083,184.5482,0.0003931,0.96320456,2.5035,07/11.0/2023,2000,g  9.5,2.0
# From MPC 50354
P/2003 F2 (NEAT),e,11.6199,358.9636,192.2843,6.501126,0.0594595,0.54131827,79.4949,07/11.0/2023,2000,g 16.5,2.0
# From MPC 50139
P/2003 QX29 (NEAT),e,11.3962,264.4957,37.7052,8.010783,0.0434702,0.47219781,327.0532,07/11.0/2023,2000,g  8.5,4.0
# From MPC105235
P/2003 T12 (SOHO),e,11.0216,174.5791,219.7689,2.585000,0.2371446,0.77025094,274.9250,07/11.0/2023,2000,g 17.0,4.0
# From MPC 54558
P/2004 DO29 (Spacewatch-LINEAR),e,14.5288,147.3798,40.4450,7.302020,0.0499505,0.44163027,343.6011,07/11.0/2023,2000,g 13.5,2.0
# From MPEC 2022-YN2
P/2004 FY140 (LINEAR),e,2.1619,327.2721,254.1755,4.969624,0.0889649,0.19170576,242.2952,07/11.0/2023,2000,g 12.5,2.0
# From MPC 53304
P/2004 R3 (LINEAR-NEAT),e,12.7852,305.2859,37.5512,4.758319,0.0949563,0.25497805,62.6399,07/11.0/2023,2000,g 14.5,4.0
# From MPC 55521
P/2004 V3 (Siding Spring),e,50.4445,356.1258,322.5338,7.126349,0.0518088,0.44572639,352.9872,07/11.0/2023,2000,g 11.5,4.0
# From MPC 75705
P/2004 V5 (LINEAR-Hill),e,19.3499,47.7685,87.4842,8.000010,0.0435580,0.44580389,295.0003,07/11.0/2023,2000,g  8.0,4.0
# From MPC 54164
P/2005 E1 (Tubbiolo),e,4.2621,335.5786,193.8372,7.055957,0.0525860,0.37602507,355.8490,07/11.0/2023,2000,g 10.0,4.0
# From MPC 79019
P/2005 J1 (McNaught),e,31.7326,268.8290,338.9014,3.572693,0.1459522,0.56895500,253.1747,07/11.0/2023,2000,g 16.5,4.0
# From MPC 74246
P/2005 L1 (McNaught),e,7.6820,137.6479,151.3161,4.009328,0.1227713,0.21658807,74.6707,07/11.0/2023,2000,g  9.5,4.0
# From MPC 75706
P/2005 S2 (Skiff),e,3.1358,161.2175,229.6359,7.999333,0.0435636,0.19883273,272.0516,07/11.0/2023,2000,g  7.5,4.0
# From MPC 75706
P/2005 SB216 (LONEOS),e,24.1192,1.1173,83.2087,7.150896,0.0515422,0.46509972,312.6391,07/11.0/2023,2000,g 12.0,2.0
# From MPC 73461
P/2005 T3 (Read),e,6.2249,27.6369,6.7408,7.588491,0.0471488,0.17555890,306.6924,07/11.0/2023,2000,g  9.0,4.0
# From MPC 73461
P/2005 T4 (SWAN),e,160.2772,25.9436,41.8763,9.356662,0.0344368,0.92999325,223.1239,07/11.0/2023,2000,g 15.0,4.0
# From MPC 75706
P/2005 T5 (Broughton),e,21.3833,57.0047,304.7481,7.274914,0.0502299,0.55255980,324.6143,07/11.0/2023,2000,g 11.0,4.0
# From MPC 75707
P/2006 HR30 (Siding Spring),e,31.8859,309.7811,117.4461,7.806360,0.0451888,0.84341367,273.3776,07/11.0/2023,2000,g 11.0,4.0
# From MPC 75707
P/2007 C2 (Catalina),e,8.6035,275.2484,180.1877,7.003873,0.0531737,0.47262047,307.6040,07/11.0/2023,2000,g 10.0,4.0
# From MPC 84315
C/2007 D1 (LINEAR),e,41.5026,171.2057,339.7278,1152,0.0000252,0.99238742,0.0000,06/08.0278/2007,2000,g  3.5,4.0
# From MPC 82314
P/2007 K2 (Gibbs),e,7.6272,188.6333,347.3021,7.284219,0.0501337,0.68365977,296.4980,07/11.0/2023,2000,g 14.0,4.0
# From MPC 60925
P/2007 Q2 (Gilmore),e,10.2020,172.1593,162.8849,5.659433,0.0732057,0.66977221,70.0004,07/11.0/2023,2000,g 16.0,4.0
# From MPC 73462
P/2007 S1 (Zhao),e,5.9612,141.3397,245.1848,3.816962,0.1321683,0.33855728,36.6496,07/11.0/2023,2000,g 13.0,4.0
# From MPC 61994
P/2007 T2 (Kowalski),e,9.7511,3.3727,359.6829,3.044667,0.1855216,0.78567240,335.9534,07/11.0/2023,2000,g 18.5,4.0
# From MPEC 2023-N01
P/2008 L2 (Hill),e,25.8698,218.0117,141.2494,6.037011,0.0664464,0.61406389,4.1251,07/11.0/2023,2000,g 12.5,4.0
# From MPC 64114
P/2008 O3 (Boattini),e,32.3483,47.5599,341.2029,8.212861,0.0418757,0.69654032,230.8429,07/11.0/2023,2000,g 13.0,4.0
# From MPC 75710
P/2008 Y3 (McNaught),e,38.7828,262.8845,237.9959,8.046331,0.0431824,0.44639000,229.8240,07/11.0/2023,2000,g  8.5,4.0
# From MPC 75710
P/2009 B1 (Boattini),e,22.2462,297.0695,128.9366,6.735491,0.0563833,0.63589359,298.8016,07/11.0/2023,2000,g 13.0,4.0
# From MPC 66466
C/2009 G1 (STEREO),e,108.3381,120.6485,175.5307,471.2883,0.0000963,0.99758480,0.0000,04/19.2896/2009,2000,g  9.0,4.0
# From MPC 75710
P/2009 O3 (Hill),e,16.2869,183.6864,154.5018,7.767021,0.0455326,0.68743933,234.6753,07/11.0/2023,2000,g 12.5,4.0
# From MPC 68902
P/2009 Q5 (McNaught),e,40.9728,160.2536,209.1597,7.427310,0.0486919,0.60994413,245.5730,07/11.0/2023,2000,g 10.0,4.0
# From MPC112389
P/2009 T2 (La Sagra),e,27.6143,215.9180,216.3311,7.715808,0.0459867,0.76692005,227.0306,07/11.0/2023,2000,g 14.0,4.0
# From MPC105235
P/2009 WX51 (Catalina),e,9.5962,31.5432,118.2722,3.082763,0.1820932,0.73927909,176.1694,07/11.0/2023,2000,g 19.0,2.0
# From MPC 74247
P/2009 Y2 (Kowalski),e,29.9740,262.0545,172.1532,6.547858,0.0588241,0.63710331,287.0637,07/11.0/2023,2000,g 13.0,4.0
# From MPC 75711
P/2010 A3 (Hill),e,14.8147,63.5969,42.2995,6.090528,0.0655725,0.73391785,320.0263,07/11.0/2023,2000,g 14.0,4.0
# From MPC 75008
P/2010 C1 (Scotti),e,9.1198,141.8247,3.1764,7.110331,0.0519840,0.26155361,260.7372,07/11.0/2023,2000,g  9.5,4.0
# From MPC 75008
P/2010 D2 (WISE),e,57.1091,319.8794,119.9072,6.722695,0.0565443,0.45157484,277.4884,07/11.0/2023,2000,g 16.0,4.0
# From MPC 75009
P/2010 E2 (Jarnac),e,15.3893,177.8227,8.2625,8.639801,0.0388104,0.71955550,188.6491,07/11.0/2023,2000,g 14.0,4.0
# From MPC 72851
P/2010 H2 (Vales),e,14.2807,64.1875,128.0463,3.831521,0.1314157,0.19702432,280.1299,07/11.0/2023,2000,g  6.0,4.0
# From MPC 70361
P/2010 H3 (SOHO),e,23.1163,77.1430,26.0969,3.036091,0.1863082,0.98544100,0.0000,02/07.8530/2021,2000,g 20.0,2.0
# From MPC 73463
P/2010 H4 (Scotti),e,2.3178,44.7274,179.1603,6.604969,0.0580628,0.26602552,278.1570,07/11.0/2023,2000,g 10.5,4.0
# From MPC 74637
P/2010 H5 (Scotti),e,14.0569,24.7921,174.5095,7.173969,0.0512938,0.15271987,249.9208,07/11.0/2023,2000,g 13.0,2.0
# From MPC 98558
P/2010 J3 (McMillan),e,13.2516,106.4952,157.5414,8.983244,0.0366062,0.72493965,172.2966,07/11.0/2023,2000,g 11.0,4.0
# From MPC 84315
P/2010 JC81 (WISE),e,38.8337,30.8729,12.4440,8.104484,0.0427185,0.77816341,190.3848,07/11.0/2023,2000,g  9.0,4.0
# From MPC xxxxx
P/2010 OE101 (WISE),e,18.4122,194.3757,174.8082,3.142561,0.1769206,0.57032317,113.9502,07/11.0/2023,2000,g 18.5,4.0
# From MPC 74248
P/2010 T2 (PANSTARRS),e,7.8987,58.3967,352.0897,5.607829,0.0742185,0.32677963,341.8944,07/11.0/2023,2000,g 11.5,4.0
# From MPEC 2023-B57
P/2010 TO20 (LINEAR-Grauer),e,2.4788,43.2757,267.7231,5.832624,0.0699694,0.05562724,15.5777,07/11.0/2023,2000,g  9.0,4.0
# From MPC 82316
P/2010 U1 (Boattini),e,8.2237,280.6716,86.4121,6.497390,0.0595108,0.24917112,291.3148,07/11.0/2023,2000,g  9.5,4.0
# From MPEC 2023-J95
C/2010 U3 (Boattini),e,55.5642,42.9886,88.0377,3242,0.0000053,0.99739653,0.0000,02/25.6410/2019,2000,g  1.0,4.0
# From MPC 79021
P/2010 UH55 (Spacewatch),e,8.0375,232.8894,225.1611,6.654053,0.0574215,0.56409360,257.2750,07/11.0/2023,2000,g 11.0,4.0
# From MPC 75009
P/2010 WK (LINEAR),e,11.4018,11.3280,41.0051,5.762132,0.0712573,0.69064782,333.1841,07/11.0/2023,2000,g 14.5,2.0
# From MPC 84021
P/2011 C2 (Gibbs),e,10.8881,12.1196,160.3048,7.412837,0.0488346,0.26946188,206.6158,07/11.0/2023,2000,g  9.0,4.0
# From MPC 79866
P/2011 FR143 (Lemmon),e,15.9753,190.9486,349.8337,6.866591,0.0547762,0.45114714,248.3500,07/11.0/2023,2000,g 14.0,2.0
# From MPC 82317
P/2011 JB15 (Spacewatch-Boattini),e,19.1430,153.6045,110.9705,7.370748,0.0492535,0.31526443,206.8018,07/11.0/2023,2000,g  9.0,4.0
# From MPEC 2023-J95
C/2011 KP36 (Spacewatch),e,18.9863,173.2709,180.9364,39.44217,0.0039789,0.87577547,10.3410,07/11.0/2023,2000,g  4.5,4.0
# From MPC 87913
P/2011 N1 (ASH),e,35.7847,77.5757,330.4308,6.242059,0.0631993,0.54532864,256.7642,07/11.0/2023,2000,g 11.5,4.0
# From MPC 75714
P/2011 NO1 (Elenin),e,15.2454,295.8249,263.7091,5.534880,0.0756906,0.77477723,345.6973,07/11.0/2023,2000,g 15.0,4.0
# From MPEC 2022-ED3
P/2011 P1 (McNaught),e,5.6594,4.2279,349.2095,7.458362,0.0483881,0.32752000,228.5472,07/11.0/2023,2000,g  9.0,4.0
# From MPEC 2022-HC2
P/2011 S1 (Gibbs),e,2.6886,218.8147,192.6218,8.584881,0.0391835,0.20172040,127.2970,07/11.0/2023,2000,g  8.0,4.0
# From MPC 79022
P/2011 UA134 (Spacewatch-PANSTARRS),e,10.4403,40.3924,32.4159,5.610294,0.0741696,0.62998197,316.4727,07/11.0/2023,2000,g 17.5,4.0
# From MPC 77406
P/2011 V1 (Boattini),e,7.3751,46.7729,269.3908,3.858006,0.1300648,0.54972005,226.7054,07/11.0/2023,2000,g 15.5,4.0
# From MPC 82718
P/2011 W1 (PANSTARRS),e,3.7184,161.7851,282.8375,4.668673,0.0977043,0.28834935,50.5867,07/11.0/2023,2000,g 11.5,4.0
# From MPC 79342
P/2011 Y2 (Boattini),e,6.3825,309.3055,131.9951,6.236277,0.0632872,0.71069441,262.2535,07/11.0/2023,2000,g 15.0,4.0
# From MPEC 2022-K19
P/2012 B1 (PANSTARRS),e,7.6103,36.2164,162.2651,6.532745,0.0590283,0.40925536,215.9197,07/11.0/2023,2000,g  9.0,4.0
# From MPC 78590
P/2012 C3 (PANSTARRS),e,9.0920,135.3677,344.9542,9.748681,0.0323806,0.63011148,359.9758,10/06.0/2011,2000,g 13.0,4.0
